[
    {
        "Altitude(m)": 624792.7883619516,
        "Argument of Periapsis(deg)": 0.0,
        "Eccentricity": 0.0,
        "Inclination(deg)": 60.0,
        "Latitude(deg)": -59.1471369572106,
        "Longitude(deg)": -20.973445765463612,
        "Mean Anomaly(deg)": -98.18179999999998,
        "RAAN(deg)": 184.99999999999997,
        "Satellite Name": "Test1 830",
        "Satellite Number": 830,
        "Semi-Major Axis(m)": 6980739.136638005,
        "Time(s)": 0
    },
    {
        "Altitude(m)": 624842.1797605249,
        "Argument of Periapsis(deg)": 0.00010418945913296404,
        "Eccentricity": 0.0,
        "Inclination(deg)": 60.0,
        "Latitude(deg)": -59.28921874665049,
        "Longitude(deg)": -19.843939237532382,
        "Mean Anomaly(deg)": -97.56169385453813,
        "RAAN(deg)": 184.99957995086024,
        "Satellite Name": "Test1 830",
        "Satellite Number": 830,
        "Semi-Major Axis(m)": 6980739.136638005,
        "Time(s)": 10
    },
    {
        "Altitude(m)": 624887.7468956659,
        "Argument of Periapsis(deg)": 0.0002083789182659281,
        "Eccentricity": 0.0,
        "Inclination(deg)": 60.0,
        "Latitude(deg)": -59.42068965169456,
        "Longitude(deg)": -18.70501224221526,
        "Mean Anomaly(deg)": -96.94158770907632,
        "RAAN(deg)": 184.99915990172053,
        "Satellite Name": "Test1 830",
        "Satellite Number": 830,
        "Semi-Major Axis(m)": 6980739.136638005,
        "Time(s)": 20
    },
    {
        "Altitude(m)": 624929.4718043414,
        "Argument of Periapsis(deg)": 0.00031256837739889213,
        "Eccentricity": 0.0,
        "Inclination(deg)": 60.0,
        "Latitude(deg)": -59.541412372277684,
        "Longitude(deg)": -17.557287093470357,
        "Mean Anomaly(deg)": -96.32148156361447,
        "RAAN(deg)": 184.99873985258077,
        "Satellite Name": "Test1 830",
        "Satellite Number": 830,
        "Semi-Major Axis(m)": 6980739.136638005,
        "Time(s)": 30
    },
    {
        "Altitude(m)": 624967.3380346813,
        "Argument of Periapsis(deg)": 0.0004167578365318562,
        "Eccentricity": 0.0,
        "Inclination(deg)": 60.0,
        "Latitude(deg)": -59.65125874189542,
        "Longitude(deg)": -16.401421089905426,
        "Mean Anomaly(deg)": -95.70137541815268,
        "RAAN(deg)": 184.998319803441,
        "Satellite Name": "Test1 830",
        "Satellite Number": 830,
        "Semi-Major Axis(m)": 6980739.136638005,
        "Time(s)": 40
    },
    {
        "Altitude(m)": 625001.3306529246,
        "Argument of Periapsis(deg)": 0.0005209472956648203,
        "Eccentricity": 0.0,
        "Inclination(deg)": 60.0,
        "Latitude(deg)": -59.750110366693455,
        "Longitude(deg)": -15.238105677993403,
        "Mean Anomaly(deg)": -95.08126927269083,
        "RAAN(deg)": 184.99789975430127,
        "Satellite Name": "Test1 830",
        "Satellite Number": 830,
        "Semi-Major Axis(m)": 6980739.136638005,
        "Time(s)": 50
    },
    {
        "Altitude(m)": 625031.4362497041,
        "Argument of Periapsis(deg)": 0.0006251367547977843,
        "Eccentricity": 0.0,
        "Inclination(deg)": 60.0,
        "Latitude(deg)": -59.83785923147928,
        "Longitude(deg)": -14.068063777713748,
        "Mean Anomaly(deg)": -94.46116312722906,
        "RAAN(deg)": 184.99747970516157,
        "Satellite Name": "Test1 830",
        "Satellite Number": 830,
        "Semi-Major Axis(m)": 6980739.136638005,
        "Time(s)": 60
    },
    {
        "Altitude(m)": 625057.6429457024,
        "Argument of Periapsis(deg)": 0.0007293262139307483,
        "Eccentricity": 0.0,
        "Inclination(deg)": 60.0,
        "Latitude(deg)": -59.91440826582277,
        "Longitude(deg)": -12.892046793732096,
        "Mean Anomaly(deg)": -93.84105698176721,
        "RAAN(deg)": 184.9970596560218,
        "Satellite Name": "Test1 830",
        "Satellite Number": 830,
        "Semi-Major Axis(m)": 6980739.136638005,
        "Time(s)": 70
    },
    {
        "Altitude(m)": 625079.9403966476,
        "Argument of Periapsis(deg)": 0.0008335156730637124,
        "Eccentricity": 0.0,
        "Inclination(deg)": 60.0,
        "Latitude(deg)": -59.97967186361856,
        "Longitude(deg)": -11.710832840898576,
        "Mean Anomaly(deg)": -93.22095083630536,
        "RAAN(deg)": 184.99663960688204,
        "Satellite Name": "Test1 830",
        "Satellite Number": 830,
        "Semi-Major Axis(m)": 6980739.136638005,
        "Time(s)": 80
    },
    {
        "Altitude(m)": 625098.3197976734,
        "Argument of Periapsis(deg)": 0.0009377051321966765,
        "Eccentricity": 0.0,
        "Inclination(deg)": 60.0,
        "Latitude(deg)": -60.03357634982805,
        "Longitude(deg)": -10.525223179714017,
        "Mean Anomaly(deg)": -92.60084469084352,
        "RAAN(deg)": 184.9962195577423,
        "Satellite Name": "Test1 830",
        "Satellite Number": 830,
        "Semi-Major Axis(m)": 6980739.136638005,
        "Time(s)": 90
    },
    {
        "Altitude(m)": 625112.7738870286,
        "Argument of Periapsis(deg)": 0.0010418945913296407,
        "Eccentricity": 0.0,
        "Inclination(deg)": 60.0,
        "Latitude(deg)": -60.07606038861107,
        "Longitude(deg)": -9.33603840133873,
        "Mean Anomaly(deg)": -91.9807385453817,
        "RAAN(deg)": 184.9957995086026,
        "Satellite Name": "Test1 830",
        "Satellite Number": 830,
        "Semi-Major Axis(m)": 6980739.136638005,
        "Time(s)": 100
    },
    {
        "Altitude(m)": 625123.2969491254,
        "Argument of Periapsis(deg)": 0.0011460840504626045,
        "Eccentricity": 0.0,
        "Inclination(deg)": 60.0,
        "Latitude(deg)": -60.107075327668404,
        "Longitude(deg)": -8.144115906655461,
        "Mean Anomaly(deg)": -91.36063239991985,
        "RAAN(deg)": 184.9953794594628,
        "Satellite Name": "Test1 830",
        "Satellite Number": 830,
        "Semi-Major Axis(m)": 6980739.136638005,
        "Time(s)": 110
    },
    {
        "Altitude(m)": 625129.8848169573,
        "Argument of Periapsis(deg)": 0.0012502735095955685,
        "Eccentricity": 0.0,
        "Inclination(deg)": 60.0,
        "Latitude(deg)": -60.12658547433345,
        "Longitude(deg)": -6.950305689706085,
        "Mean Anomaly(deg)": -90.740526254458,
        "RAAN(deg)": 184.99495941032308,
        "Satellite Name": "Test1 830",
        "Satellite Number": 830,
        "Semi-Major Axis(m)": 6980739.136638005,
        "Time(s)": 120
    },
    {
        "Altitude(m)": 625132.534873854,
        "Argument of Periapsis(deg)": 0.0013544629687285324,
        "Eccentricity": 0.0,
        "Inclination(deg)": 60.0,
        "Latitude(deg)": -60.134568299788455,
        "Longitude(deg)": -5.755465978223343,
        "Mean Anomaly(deg)": -90.12042010899621,
        "RAAN(deg)": 184.99453936118334,
        "Satellite Name": "Test1 830",
        "Satellite Number": 830,
        "Semi-Major Axis(m)": 6980739.136638005,
        "Time(s)": 130
    },
    {
        "Altitude(m)": 625131.2460545808,
        "Argument of Periapsis(deg)": 0.0014586524278614966,
        "Eccentricity": 0.0,
        "Inclination(deg)": 60.0,
        "Latitude(deg)": -60.131014568693566,
        "Longitude(deg)": -4.560460286982777,
        "Mean Anomaly(deg)": -89.50031396353434,
        "RAAN(deg)": 184.99411931204358,
        "Satellite Name": "Test1 830",
        "Satellite Number": 830,
        "Semi-Major Axis(m)": 6980739.136638005,
        "Time(s)": 140
    },
    {
        "Altitude(m)": 625126.0188457888,
        "Argument of Periapsis(deg)": 0.0015628418869944607,
        "Eccentricity": 0.0,
        "Inclination(deg)": 60.0,
        "Latitude(deg)": -60.11592839248686,
        "Longitude(deg)": -3.3661529032067965,
        "Mean Anomaly(deg)": -88.88020781807258,
        "RAAN(deg)": 184.99369926290385,
        "Satellite Name": "Test1 830",
        "Satellite Number": 830,
        "Semi-Major Axis(m)": 6980739.136638005,
        "Time(s)": 150
    },
    {
        "Altitude(m)": 625116.8552858228,
        "Argument of Periapsis(deg)": 0.0016670313461274247,
        "Eccentricity": 0.0,
        "Inclination(deg)": 60.0,
        "Latitude(deg)": -60.08932720564106,
        "Longitude(deg)": -2.1734043630508295,
        "Mean Anomaly(deg)": -88.2601016726107,
        "RAAN(deg)": 184.99327921376414,
        "Satellite Name": "Test1 830",
        "Satellite Number": 830,
        "Semi-Major Axis(m)": 6980739.136638005,
        "Time(s)": 160
    },
    {
        "Altitude(m)": 625103.7589638467,
        "Argument of Periapsis(deg)": 0.0017712208052603888,
        "Eccentricity": 0.0,
        "Inclination(deg)": 60.0,
        "Latitude(deg)": -60.05124166519916,
        "Longitude(deg)": -0.983068478402641,
        "Mean Anomaly(deg)": -87.6399955271489,
        "RAAN(deg)": 184.99285916462438,
        "Satellite Name": "Test1 830",
        "Satellite Number": 830,
        "Semi-Major Axis(m)": 6980739.136638005,
        "Time(s)": 170
    },
    {
        "Altitude(m)": 625086.7350183629,
        "Argument of Periapsis(deg)": 0.001875410264393353,
        "Eccentricity": 0.0,
        "Inclination(deg)": 60.0,
        "Latitude(deg)": -60.001715474932226,
        "Longitude(deg)": 0.2040120662134536,
        "Mean Anomaly(deg)": -87.01988938168708,
        "RAAN(deg)": 184.99243911548461,
        "Satellite Name": "Test1 830",
        "Satellite Number": 830,
        "Semi-Major Axis(m)": 6980739.136638005,
        "Time(s)": 180
    },
    {
        "Altitude(m)": 625065.7901350326,
        "Argument of Periapsis(deg)": 0.0019795997235263173,
        "Eccentricity": 0.0,
        "Inclination(deg)": 60.0,
        "Latitude(deg)": -59.94080513646732,
        "Longitude(deg)": 1.387009989970424,
        "Mean Anomaly(deg)": -86.39978323622522,
        "RAAN(deg)": 184.99201906634488,
        "Satellite Name": "Test1 830",
        "Satellite Number": 830,
        "Semi-Major Axis(m)": 6980739.136638005,
        "Time(s)": 190
    }
]